{"type":"FeatureCollection","features":[{"type":"Feature","properties":{"typ":"Besonderes Schutzgebiet (ganzjährig)","name":"","seasonal":false},"geometry":{"type":"Polygon","coordinates":[[[8.28514,53.44628],[8.29741,53.44289],[8.30787,53.44772],[8.31133,53.4513],[8.31167,53.45248],[8.31411,53.45588],[8.31468,53.45717],[8.31444,53.45827],[8.31532,53.45917],[8.31543,53.46094],[8.31602,53.46186],[8.3156,53.46404],[8.31603,53.46443],[8.31579,53.46567],[8.31636,53.46661],[8.31603,53.46772],[8.31658,53.46895],[8.31611,53.47003],[8.31686,53.47199],[8.31601,53.47322],[8.31697,53.4776],[8.31639,53.47913],[8.31598,53.48261],[8.31627,53.48394],[8.31584,53.48455],[8.31674,53.48568],[8.31592,53.48647],[8.31675,53.48724],[8.31683,53.48839],[8.31621,53.49182],[8.31569,53.49234],[8.3164,53.49306],[8.31661,53.4945],[8.31619,53.49557],[8.31672,53.4964],[8.31614,53.49703],[8.31631,53.49861],[8.31556,53.50137],[8.31628,53.50184],[8.31653,53.5027],[8.31662,53.50402],[8.31597,53.50587],[8.31703,53.50715],[8.31589,53.51034],[8.3164,53.51164],[8.31541,53.51296],[8.31672,53.51389],[8.31696,53.51482],[8.31327,53.51979],[8.31106,53.52161],[8.30932,53.52292],[8.30348,53.52543],[8.29962,53.52597],[8.28916,53.52343],[8.29872,53.51568],[8.30083,53.50334],[8.29899,53.46069],[8.29839,53.4583],[8.29529,53.45423],[8.28514,53.44628]]]}},{"type":"Feature","properties":{"typ":"Besonderes Schutzgebiet (ganzjährig)","name":"","seasonal":false},"geometry":{"type":"Polygon","coordinates":[[[8.10718,53.45309],[8.10541,53.45364],[8.10633,53.45486],[8.09763,53.45861],[8.0907,53.46309],[8.08363,53.46981],[8.08063,53.47374],[8.07797,53.4781],[8.07575,53.48336],[8.07506,53.48918],[8.07445,53.50298],[8.06457,53.50619],[8.06254,53.50587],[8.06099,53.50164],[8.06014,53.49676],[8.06231,53.48228],[8.06603,53.47503],[8.06982,53.46939],[8.07467,53.46354],[8.08221,53.45692],[8.09039,53.45094],[8.09858,53.44595],[8.09959,53.44447],[8.101,53.44444],[8.10599,53.44611],[8.10863,53.4531],[8.10718,53.45309]]]}},{"type":"Feature","properties":{"typ":"Besonderes Schutzgebiet (ganzjährig)","name":"","seasonal":false},"geometry":{"type":"Polygon","coordinates":[[[8.15865,53.45562],[8.15112,53.45907],[8.14114,53.45174],[8.14421,53.45017],[8.147,53.44993],[8.14928,53.44755],[8.15234,53.44773],[8.15455,53.44593],[8.15649,53.44528],[8.16057,53.44185],[8.1606,53.44087],[8.1728,53.43282],[8.17892,53.42812],[8.18351,53.42385],[8.19361,53.4162],[8.19638,53.41346],[8.19766,53.41073],[8.19644,53.40836],[8.20048,53.40435],[8.2035,53.40315],[8.21102,53.40153],[8.22302,53.40108],[8.24453,53.39835],[8.24976,53.39838],[8.25821,53.40075],[8.26883,53.40608],[8.27879,53.41295],[8.28084,53.41348],[8.28104,53.41419],[8.28372,53.41664],[8.29092,53.42258],[8.29778,53.43117],[8.29753,53.43295],[8.29617,53.43382],[8.28124,53.4336],[8.28045,53.43001],[8.27437,53.42394],[8.26313,53.41569],[8.25484,53.41119],[8.24559,53.40788],[8.23087,53.4079],[8.22484,53.40878],[8.21995,53.41024],[8.2144,53.41261],[8.21047,53.41542],[8.17999,53.44118],[8.15865,53.45562]]]}},{"type":"Feature","properties":{"typ":"Besonderes Schutzgebiet (ganzjährig)","name":"","seasonal":false},"geometry":{"type":"Polygon","coordinates":[[[7.01465,53.4412],[7.02637,53.47713],[7.02456,53.48277],[7.02503,53.4842],[7.02589,53.48501],[7.01917,53.48889],[7.01295,53.48889],[7.00888,53.48468],[7.01088,53.47805],[6.99862,53.4412],[7.01465,53.4412]]]}},{"type":"Feature","properties":{"typ":"Besonderes Schutzgebiet (ganzjährig)","name":"","seasonal":false},"geometry":{"type":"Polygon","coordinates":[[[7.10612,53.55539],[7.10448,53.55687],[7.10483,53.55813],[7.10418,53.55969],[7.10567,53.56078],[7.10532,53.56135],[7.10361,53.56228],[7.09567,53.56472],[7.09488,53.56616],[7.08734,53.57122],[7.08418,53.57061],[7.06684,53.55418],[7.05694,53.55027],[7.04878,53.54924],[7.03935,53.54896],[7.03561,53.54743],[7.03975,53.53851],[7.04136,53.53671],[7.04512,53.53648],[7.04755,53.53582],[7.05368,53.53311],[7.06004,53.52926],[7.06443,53.52766],[7.06939,53.52719],[7.0686,53.5266],[7.07123,53.52714],[7.07556,53.52972],[7.07593,53.53106],[7.07521,53.53265],[7.0767,53.53275],[7.08286,53.52948],[7.08772,53.52503],[7.08819,53.52363],[7.08633,53.52252],[7.08626,53.52184],[7.08866,53.52296],[7.08896,53.52385],[7.0885,53.52524],[7.08921,53.52501],[7.08963,53.52395],[7.09311,53.52165],[7.09652,53.52186],[7.09874,53.52376],[7.0995,53.52587],[7.10421,53.52771],[7.10807,53.52851],[7.1226,53.52972],[7.12983,53.53232],[7.13229,53.53381],[7.13301,53.53509],[7.13222,53.53674],[7.13332,53.53745],[7.13145,53.53999],[7.13042,53.54022],[7.13039,53.54146],[7.13006,53.54155],[7.12982,53.54065],[7.12862,53.54071],[7.12388,53.543],[7.12374,53.54356],[7.12487,53.54381],[7.11967,53.54695],[7.11934,53.54784],[7.11698,53.54848],[7.11799,53.54894],[7.118,53.54935],[7.11427,53.55176],[7.1148,53.55306],[7.11412,53.55391],[7.10895,53.55562],[7.10612,53.55539]]]}},{"type":"Feature","properties":{"typ":"Besonderes Schutzgebiet (ganzjährig)","name":"","seasonal":false},"geometry":{"type":"Polygon","coordinates":[[[7.44581,53.72045],[7.44365,53.72322],[7.44173,53.7244],[7.4403,53.72644],[7.43094,53.72648],[7.42964,53.72472],[7.43021,53.7214],[7.42576,53.72021],[7.41183,53.71993],[7.40352,53.7207],[7.39999,53.7202],[7.39309,53.72055],[7.38968,53.72022],[7.38295,53.72184],[7.37794,53.7218],[7.37424,53.72238],[7.37454,53.72177],[7.39768,53.71158],[7.43458,53.7116],[7.44032,53.71318],[7.44455,53.71552],[7.4457,53.71686],[7.44665,53.71913],[7.44581,53.72045]]]}},{"type":"Feature","properties":{"typ":"Besonderes Schutzgebiet (ganzjährig)","name":"","seasonal":false},"geometry":{"type":"Polygon","coordinates":[[[7.34423,53.71166],[7.34571,53.71261],[7.34539,53.71372],[7.34676,53.71566],[7.34672,53.71707],[7.34429,53.7183],[7.34219,53.71852],[7.33856,53.71781],[7.33583,53.71586],[7.33074,53.71396],[7.32369,53.71228],[7.30134,53.7106],[7.30205,53.70963],[7.2965,53.70867],[7.29477,53.70793],[7.27001,53.70409],[7.25465,53.70381],[7.24961,53.70412],[7.24813,53.70347],[7.21526,53.70329],[7.21526,53.70506],[7.21227,53.70504],[7.21213,53.70577],[7.20905,53.70635],[7.20789,53.70613],[7.20732,53.70548],[7.20624,53.70547],[7.20622,53.70503],[7.202,53.70497],[7.20044,53.70181],[7.23662,53.6987],[7.26012,53.6987],[7.28281,53.69965],[7.34423,53.71166]]]}},{"type":"Feature","properties":{"typ":"Besonderes Schutzgebiet (ganzjährig)","name":"","seasonal":false},"geometry":{"type":"Polygon","coordinates":[[[7.49523,53.6886],[7.48764,53.68143],[7.50889,53.67563],[7.51247,53.67312],[7.51596,53.67213],[7.51929,53.6721],[7.52169,53.67121],[7.52253,53.67201],[7.52426,53.67153],[7.52483,53.67224],[7.52731,53.67164],[7.52787,53.67227],[7.53028,53.67187],[7.54423,53.67408],[7.53731,53.68263],[7.52165,53.68024],[7.49523,53.6886]]]}},{"type":"Feature","properties":{"typ":"Besonderes Schutzgebiet (ganzjährig)","name":"","seasonal":false},"geometry":{"type":"Polygon","coordinates":[[[7.63115,53.74106],[7.63463,53.7446],[7.63685,53.74827],[7.64123,53.75165],[7.63843,53.75193],[7.63134,53.75076],[7.6294,53.74934],[7.62948,53.74876],[7.63144,53.74878],[7.6298,53.74784],[7.61142,53.74619],[7.58473,53.74827],[7.5708,53.74873],[7.56891,53.74856],[7.56869,53.74795],[7.55362,53.74596],[7.55098,53.74598],[7.55095,53.74503],[7.53884,53.74311],[7.53283,53.74328],[7.53283,53.74293],[7.52965,53.74287],[7.52625,53.74353],[7.51159,53.74329],[7.50647,53.73967],[7.50348,53.73613],[7.50289,53.73606],[7.50258,53.73434],[7.50185,53.73429],[7.53811,53.73484],[7.56937,53.73911],[7.61134,53.7375],[7.62827,53.73867],[7.63115,53.74106]]]}},{"type":"Feature","properties":{"typ":"Besonderes Schutzgebiet (ganzjährig)","name":"","seasonal":false},"geometry":{"type":"Polygon","coordinates":[[[7.59146,53.68097],[7.60419,53.68569],[7.60447,53.68783],[7.56433,53.68971],[7.56072,53.68758],[7.5708,53.68053],[7.58027,53.68093],[7.58514,53.6805],[7.58681,53.67984],[7.59146,53.68097]]]}},{"type":"Feature","properties":{"typ":"Besonderes Schutzgebiet (ganzjährig)","name":"","seasonal":false},"geometry":{"type":"Polygon","coordinates":[[[8.2616,53.6109],[8.27134,53.60362],[8.2747,53.60509],[8.27856,53.60784],[8.28283,53.61008],[8.29149,53.61294],[8.30419,53.61534],[8.30702,53.61514],[8.31143,53.61637],[8.31535,53.61534],[8.32291,53.61532],[8.32828,53.61433],[8.34329,53.60857],[8.34653,53.60695],[8.34591,53.60608],[8.34625,53.60596],[8.34705,53.60677],[8.34986,53.60734],[8.34766,53.61015],[8.34697,53.61241],[8.34749,53.61441],[8.35001,53.61648],[8.34292,53.61965],[8.33496,53.6222],[8.32792,53.62362],[8.31597,53.62519],[8.30822,53.62507],[8.2929,53.62282],[8.28457,53.62082],[8.27193,53.61636],[8.2616,53.6109]]]}},{"type":"Feature","properties":{"typ":"Besonderes Schutzgebiet (ganzjährig)","name":"","seasonal":false},"geometry":{"type":"Polygon","coordinates":[[[8.39518,53.58154],[8.3863,53.57429],[8.398,53.5693],[8.41258,53.56617],[8.41418,53.56545],[8.4355,53.56206],[8.43659,53.56167],[8.4388,53.55922],[8.43934,53.55965],[8.44156,53.55964],[8.44668,53.55866],[8.4478,53.55928],[8.44899,53.55805],[8.45468,53.55546],[8.46384,53.55264],[8.46655,53.55259],[8.46762,53.55362],[8.47056,53.55314],[8.47614,53.55351],[8.50375,53.5506],[8.5112,53.55203],[8.51313,53.55319],[8.51632,53.5572],[8.51583,53.5583],[8.518,53.55832],[8.51815,53.5577],[8.51598,53.55612],[8.51491,53.55171],[8.51645,53.54983],[8.52007,53.54815],[8.52115,53.54662],[8.53671,53.5404],[8.54142,53.53945],[8.54772,53.53903],[8.51817,53.55847],[8.46423,53.56279],[8.44336,53.5702],[8.42087,53.57399],[8.40645,53.57695],[8.39518,53.58154]]]}},{"type":"Feature","properties":{"typ":"Besonderes Schutzgebiet (ganzjährig)","name":"","seasonal":false},"geometry":{"type":"Polygon","coordinates":[[[7.87222,53.78862],[7.8722,53.78911],[7.86978,53.78954],[7.8696,53.79019],[7.86908,53.79032],[7.86398,53.78758],[7.86456,53.78743],[7.8659,53.78818],[7.8683,53.78765],[7.86916,53.78794],[7.86995,53.78705],[7.87251,53.78685],[7.87088,53.78437],[7.86997,53.78381],[7.8702,53.78267],[7.86869,53.77931],[7.86827,53.77654],[7.87052,53.77612],[7.87133,53.77744],[7.87269,53.77717],[7.88833,53.78472],[7.88843,53.78575],[7.88075,53.78704],[7.87644,53.78857],[7.87425,53.7889],[7.87222,53.78862]]]}},{"type":"Feature","properties":{"typ":"Besonderes Schutzgebiet (ganzjährig)","name":"","seasonal":false},"geometry":{"type":"Polygon","coordinates":[[[7.72404,53.76122],[7.71264,53.76206],[7.70734,53.76331],[7.70382,53.76292],[7.70385,53.7621],[7.70252,53.76263],[7.70278,53.7582],[7.72392,53.75656],[7.72404,53.76122]]]}},{"type":"Feature","properties":{"typ":"Besonderes Schutzgebiet (ganzjährig)","name":"","seasonal":false},"geometry":{"type":"Polygon","coordinates":[[[7.78871,53.70861],[7.78951,53.70961],[7.79434,53.71005],[7.79357,53.71878],[7.75759,53.71051],[7.74156,53.7085],[7.71141,53.70874],[7.71136,53.70065],[7.71776,53.69955],[7.72878,53.69911],[7.76191,53.70131],[7.76578,53.70224],[7.76684,53.70349],[7.77468,53.70434],[7.77614,53.70561],[7.78009,53.70595],[7.78227,53.70706],[7.78751,53.70767],[7.78871,53.70861]]]}},{"type":"Feature","properties":{"typ":"Besonderes Schutzgebiet (ganzjährig)","name":"","seasonal":false},"geometry":{"type":"Polygon","coordinates":[[[7.48661,53.72157],[7.49119,53.72218],[7.49167,53.72261],[7.49,53.72455],[7.48303,53.72581],[7.48119,53.72459],[7.48078,53.72345],[7.48154,53.72303],[7.48135,53.72269],[7.47656,53.72171],[7.46976,53.72164],[7.46202,53.72386],[7.46045,53.72505],[7.46049,53.72339],[7.47011,53.72078],[7.47578,53.72058],[7.48661,53.72157]]]}},{"type":"Feature","properties":{"typ":"Besonderes Schutzgebiet (ganzjährig)","name":"","seasonal":false},"geometry":{"type":"Polygon","coordinates":[[[7.0309,53.4898],[7.049,53.50701],[7.04944,53.50798],[7.04906,53.50886],[7.04147,53.51656],[7.03873,53.51994],[7.03334,53.5306],[7.03301,53.5319],[7.03338,53.53321],[7.03645,53.53574],[7.03752,53.53864],[7.03388,53.54644],[7.02899,53.5449],[7.02525,53.54299],[7.02228,53.54036],[7.02078,53.53832],[7.02013,53.53728],[7.01929,53.53368],[7.01926,53.52766],[7.02099,53.52333],[7.02719,53.51404],[7.0324,53.5086],[7.01958,53.4954],[7.01532,53.49229],[7.02665,53.48574],[7.0309,53.4898]]]}},{"type":"Feature","properties":{"typ":"Besonderes Schutzgebiet (ganzjährig)","name":"","seasonal":false},"geometry":{"type":"Polygon","coordinates":[[[7.27846,53.67344],[7.28219,53.67429],[7.28297,53.67598],[7.27838,53.68409],[7.23428,53.67389],[7.22032,53.66919],[7.20579,53.6609],[7.21455,53.65399],[7.22202,53.65698],[7.22236,53.65828],[7.22531,53.65948],[7.22593,53.66075],[7.23227,53.66285],[7.23164,53.66404],[7.23957,53.66555],[7.23899,53.66664],[7.24157,53.66713],[7.24344,53.66855],[7.26637,53.67339],[7.26716,53.67226],[7.27198,53.67231],[7.27846,53.67344]]]}},{"type":"Feature","properties":{"typ":"Besonderes Schutzgebiet (ganzjährig)","name":"","seasonal":false},"geometry":{"type":"Polygon","coordinates":[[[7.34547,53.68573],[7.3429,53.69405],[7.28697,53.68674],[7.2806,53.68457],[7.28504,53.67612],[7.28974,53.6788],[7.29669,53.68015],[7.30206,53.68039],[7.31135,53.68238],[7.34567,53.68511],[7.34547,53.68573]]]}},{"type":"Feature","properties":{"typ":"Besonderes Schutzgebiet (ganzjährig)","name":"","seasonal":false},"geometry":{"type":"Polygon","coordinates":[[[7.47189,53.68489],[7.46472,53.69281],[7.43786,53.69301],[7.3633,53.69237],[7.36322,53.68536],[7.36804,53.68496],[7.37,53.68406],[7.37544,53.68297],[7.39006,53.68404],[7.39658,53.68359],[7.4115,53.68469],[7.41169,53.68364],[7.41291,53.68375],[7.41299,53.68326],[7.43832,53.68391],[7.47225,53.68316],[7.47189,53.68489]]]}},{"type":"Feature","properties":{"typ":"Besonderes Schutzgebiet (ganzjährig)","name":"","seasonal":false},"geometry":{"type":"Polygon","coordinates":[[[7.99795,53.72264],[7.93958,53.72778],[7.90055,53.72722],[7.81589,53.72058],[7.8117,53.71175],[7.83188,53.71105],[7.85723,53.71341],[7.8607,53.71416],[7.86392,53.71394],[7.86581,53.71451],[7.86957,53.7141],[7.87547,53.71589],[7.88017,53.7165],[7.88904,53.71655],[7.91316,53.71856],[7.93052,53.71664],[7.9487,53.71667],[7.96486,53.71605],[7.98056,53.71424],[7.99315,53.71365],[8.0095,53.71152],[8.01659,53.71009],[8.0237,53.7188],[7.99795,53.72264]]]}},{"type":"Feature","properties":{"typ":"Besonderes Schutzgebiet (ganzjährig)","name":"","seasonal":false},"geometry":{"type":"Polygon","coordinates":[[[8.04007,53.67895],[8.03927,53.6808],[8.02363,53.68067],[8.02528,53.67906],[8.02589,53.67775],[8.02875,53.66719],[8.02795,53.66325],[8.03186,53.65726],[8.0351,53.65539],[8.03706,53.65082],[8.03806,53.64958],[8.0517,53.652],[8.04007,53.67895]]]}},{"type":"Feature","properties":{"typ":"Besonderes Schutzgebiet (ganzjährig)","name":"","seasonal":false},"geometry":{"type":"Polygon","coordinates":[[[7.69374,53.7596],[7.69486,53.76231],[7.694,53.7626],[7.69295,53.76075],[7.69141,53.75946],[7.68879,53.7603],[7.68999,53.75917],[7.68914,53.75711],[7.68756,53.75748],[7.68617,53.75693],[7.68339,53.75724],[7.68617,53.7562],[7.68454,53.75247],[7.68308,53.7512],[7.68169,53.75177],[7.67489,53.75227],[7.67429,53.75151],[7.68198,53.74958],[7.68849,53.74884],[7.68874,53.75124],[7.69374,53.7596]]]}},{"type":"Feature","properties":{"typ":"Besonderes Schutzgebiet (ganzjährig)","name":"","seasonal":false},"geometry":{"type":"Polygon","coordinates":[[[8.48906,53.64975],[8.48462,53.65588],[8.48414,53.65758],[8.48482,53.66571],[8.48344,53.67194],[8.48304,53.67611],[8.48372,53.685],[8.48283,53.6877],[8.484,53.69347],[8.48373,53.69416],[8.48799,53.69964],[8.48964,53.703],[8.49306,53.70742],[8.4953,53.71163],[8.49672,53.71243],[8.4975,53.71351],[8.49907,53.71629],[8.49765,53.71716],[8.49948,53.71896],[8.49923,53.71966],[8.50128,53.7229],[8.50208,53.72374],[8.50366,53.72407],[8.50513,53.72582],[8.50513,53.72668],[8.50644,53.728],[8.50666,53.72952],[8.50905,53.7337],[8.49136,53.73066],[8.46757,53.69517],[8.46807,53.65485],[8.47298,53.64686],[8.48906,53.64975]]]}},{"type":"Feature","properties":{"typ":"Besonderes Schutzgebiet (ganzjährig)","name":"","seasonal":false},"geometry":{"type":"Polygon","coordinates":[[[7.97226,53.77676],[7.97093,53.77603],[7.96741,53.77634],[7.96095,53.77858],[7.9459,53.7824],[7.94271,53.78079],[7.93716,53.77987],[7.92758,53.77993],[7.91997,53.78129],[7.91961,53.78011],[7.91545,53.78023],[7.90797,53.78117],[7.89203,53.78514],[7.89212,53.78011],[7.90695,53.7766],[7.91922,53.77537],[7.96728,53.77368],[7.96727,53.77506],[7.97247,53.77481],[7.97456,53.77638],[7.97226,53.77676]]]}},{"type":"Feature","properties":{"typ":"Besonderes Schutzgebiet (ganzjährig)","name":"","seasonal":false},"geometry":{"type":"Polygon","coordinates":[[[6.73389,53.5701],[6.7254,53.56936],[6.725,53.56871],[6.72167,53.56679],[6.72152,53.56522],[6.7238,53.56356],[6.72861,53.55766],[6.72875,53.55599],[6.72711,53.55532],[6.72305,53.55557],[6.71916,53.55691],[6.70681,53.56676],[6.7045,53.56761],[6.70127,53.56817],[6.69877,53.56776],[6.69685,53.56684],[6.69515,53.56685],[6.69812,53.56496],[6.70183,53.56419],[6.70495,53.56295],[6.71147,53.5591],[6.71356,53.557],[6.71389,53.55517],[6.71287,53.55452],[6.71328,53.55355],[6.71398,53.55264],[6.71591,53.55262],[6.72645,53.55403],[6.7409,53.55682],[6.74119,53.56009],[6.74315,53.56127],[6.74199,53.56204],[6.74192,53.56558],[6.73927,53.56794],[6.73389,53.5701]]]}},{"type":"Feature","properties":{"typ":"Besonderes Schutzgebiet (ganzjährig)","name":"","seasonal":false},"geometry":{"type":"Polygon","coordinates":[[[7.72837,53.75621],[7.72834,53.75163],[7.74228,53.75129],[7.76723,53.75357],[7.81302,53.76698],[7.81955,53.77649],[7.82179,53.77828],[7.81544,53.77825],[7.81522,53.77684],[7.81432,53.77534],[7.81004,53.77369],[7.80081,53.77131],[7.79757,53.77179],[7.79903,53.77071],[7.79074,53.76829],[7.76997,53.76414],[7.75163,53.7628],[7.73987,53.76061],[7.72835,53.76092],[7.72837,53.75621]]]}},{"type":"Feature","properties":{"typ":"Besonderes Schutzgebiet (ganzjährig)","name":"","seasonal":false},"geometry":{"type":"Polygon","coordinates":[[[7.06247,53.67447],[7.09575,53.67566],[7.09888,53.67727],[7.09951,53.67847],[7.09267,53.67996],[7.08679,53.68061],[7.06986,53.68022],[7.06864,53.67999],[7.06837,53.67948],[7.06206,53.67876],[7.06247,53.67447]]]}},{"type":"Feature","properties":{"typ":"Besonderes Schutzgebiet (ganzjährig)","name":"","seasonal":false},"geometry":{"type":"Polygon","coordinates":[[[7.05443,53.67843],[7.05191,53.67831],[7.0516,53.67884],[7.04691,53.6787],[7.04042,53.67831],[7.03773,53.67741],[7.03089,53.6774],[7.02668,53.67662],[7.02215,53.67657],[7.01856,53.67541],[7.01697,53.67402],[7.01703,53.67281],[7.05481,53.67419],[7.05443,53.67843]]]}},{"type":"Feature","properties":{"typ":"Besonderes Schutzgebiet (ganzjährig)","name":"","seasonal":false},"geometry":{"type":"Polygon","coordinates":[[[6.8899,53.67384],[6.87136,53.67311],[6.86045,53.67179],[6.84441,53.66902],[6.84227,53.66918],[6.83917,53.67068],[6.83406,53.67073],[6.80152,53.66334],[6.79821,53.66305],[6.7975,53.66227],[6.79951,53.65782],[6.80439,53.65022],[6.81349,53.64468],[6.81333,53.64393],[6.81259,53.64358],[6.80506,53.64218],[6.80419,53.64117],[6.80476,53.64032],[6.81236,53.63989],[6.82406,53.63502],[6.83345,53.63376],[6.84377,53.6339],[6.87809,53.62531],[6.88636,53.62396],[6.89567,53.6232],[6.89942,53.62342],[6.91715,53.62673],[6.95933,53.66249],[6.95674,53.6705],[6.93292,53.66763],[6.90883,53.66667],[6.89818,53.6649],[6.89167,53.66472],[6.8848,53.66307],[6.87319,53.66259],[6.86049,53.65963],[6.85866,53.65957],[6.85604,53.66042],[6.85422,53.6619],[6.85349,53.66317],[6.85342,53.66452],[6.85432,53.66542],[6.859,53.6679],[6.86327,53.66876],[6.88091,53.67032],[6.89031,53.67179],[6.8899,53.67384]],[[6.90415,53.65188],[6.9049,53.65278],[6.90661,53.65282],[6.90757,53.65148],[6.90742,53.65023],[6.90549,53.64834],[6.90208,53.64695],[6.898,53.64697],[6.89506,53.64608],[6.89308,53.64478],[6.89246,53.64283],[6.89308,53.63897],[6.89404,53.63779],[6.89756,53.63641],[6.89756,53.63498],[6.89469,53.6312],[6.89791,53.63019],[6.89918,53.62933],[6.89876,53.62761],[6.89523,53.62586],[6.89039,53.62542],[6.88613,53.62625],[6.88031,53.62815],[6.87588,53.63025],[6.86981,53.63536],[6.86522,53.64077],[6.86506,53.64376],[6.86547,53.64458],[6.86687,53.64527],[6.87067,53.64596],[6.87805,53.6464],[6.88053,53.64511],[6.87982,53.64608],[6.88,53.64668],[6.88481,53.64868],[6.89978,53.64916],[6.90251,53.65002],[6.90381,53.65095],[6.90415,53.65188]],[[6.83181,53.63605],[6.83142,53.63559],[6.82749,53.63715],[6.82513,53.63958],[6.82321,53.64276],[6.82161,53.64723],[6.82194,53.64839],[6.82678,53.64957],[6.83248,53.64897],[6.84255,53.65023],[6.84452,53.64958],[6.84491,53.64882],[6.84464,53.64818],[6.84021,53.64725],[6.83668,53.64479],[6.83329,53.6394],[6.83298,53.63819],[6.83387,53.63636],[6.83181,53.63605]]]}},{"type":"Feature","properties":{"typ":"Besonderes Schutzgebiet (ganzjährig)","name":"","seasonal":false},"geometry":{"type":"Polygon","coordinates":[[[8.23506,53.53434],[8.23776,53.56091],[8.24082,53.57063],[8.22955,53.5724],[8.21814,53.55425],[8.22529,53.53045],[8.23372,53.5296],[8.23506,53.53434]]]}},{"type":"Feature","properties":{"typ":"Besonderes Schutzgebiet","name":"","seasonal":true},"geometry":{"type":"Polygon","coordinates":[[[6.90133,53.56179],[6.90486,53.57024],[6.90516,53.57292],[6.9047,53.57616],[6.90523,53.57815],[6.9065,53.58019],[6.90978,53.58307],[6.90986,53.58359],[6.90634,53.58471],[6.90493,53.58711],[6.90216,53.58946],[6.89511,53.59433],[6.89176,53.59573],[6.88549,53.59944],[6.87621,53.60329],[6.86491,53.60705],[6.80871,53.59297],[6.80967,53.56961],[6.82371,53.56836],[6.82715,53.5525],[6.76957,53.53729],[6.77468,53.52859],[6.78016,53.52438],[6.78491,53.51921],[6.7886,53.51678],[6.82866,53.50155],[6.8364,53.49992],[6.84305,53.50028],[6.84968,53.50178],[6.85827,53.50484],[6.86967,53.50616],[6.87498,53.50735],[6.88355,53.51074],[6.93252,53.52681],[6.93016,53.52958],[6.92675,53.53772],[6.9253,53.54289],[6.90761,53.54464],[6.90637,53.54897],[6.90313,53.55314],[6.90057,53.56054],[6.90133,53.56179]]]}},{"type":"Feature","properties":{"typ":"Besonderes Schutzgebiet","name":"","seasonal":true},"geometry":{"type":"Polygon","coordinates":[[[8.19223,53.77368],[8.29423,53.74746],[8.2783,53.76918],[8.22838,53.78506],[8.19218,53.78486],[8.19223,53.77368]]]}},{"type":"Feature","properties":{"typ":"Besonderes Schutzgebiet","name":"","seasonal":true},"geometry":{"type":"Polygon","coordinates":[[[8.41938,53.88589],[8.41138,53.88873],[8.3862,53.89418],[8.37661,53.89536],[8.36718,53.90025],[8.36291,53.90342],[8.35399,53.90879],[8.35204,53.91047],[8.34879,53.91483],[8.26403,53.81223],[8.27847,53.78671],[8.34047,53.7468],[8.44552,53.78152],[8.45989,53.77996],[8.46603,53.77996],[8.46866,53.7795],[8.47114,53.78062],[8.47296,53.7826],[8.47458,53.78712],[8.4774,53.78992],[8.48143,53.79267],[8.41938,53.88589]],[[8.38128,53.8384],[8.3841,53.83815],[8.38472,53.83567],[8.38547,53.83461],[8.38042,53.83089],[8.38152,53.83008],[8.38155,53.82958],[8.37939,53.82839],[8.37379,53.827],[8.37312,53.82655],[8.37372,53.82547],[8.36784,53.82396],[8.36178,53.82389],[8.35197,53.82642],[8.34853,53.82779],[8.34651,53.83035],[8.3466,53.83219],[8.34894,53.83532],[8.35415,53.83766],[8.35874,53.83828],[8.36326,53.83821],[8.36652,53.83765],[8.36882,53.83621],[8.37615,53.83807],[8.38128,53.8384]]]}},{"type":"Feature","properties":{"typ":"Besonderes Schutzgebiet","name":"","seasonal":true},"geometry":{"type":"Polygon","coordinates":[[[8.2211,53.73132],[8.16525,53.75807],[8.13266,53.78271],[8.09266,53.76538],[8.09306,53.72861],[8.15083,53.67028],[8.17942,53.59869],[8.24083,53.59894],[8.2668,53.62996],[8.29358,53.70366],[8.25385,53.71737],[8.25289,53.71602],[8.24339,53.71045],[8.23525,53.70728],[8.23277,53.70744],[8.23027,53.70871],[8.22837,53.71072],[8.22863,53.71375],[8.22681,53.71976],[8.22709,53.72146],[8.22845,53.72367],[8.23216,53.72601],[8.2211,53.73132]],[[8.13436,53.71262],[8.13242,53.71317],[8.13094,53.71526],[8.13102,53.71803],[8.13212,53.72008],[8.13864,53.72481],[8.14584,53.72826],[8.15357,53.73012],[8.16067,53.72999],[8.17122,53.72673],[8.1743,53.72474],[8.1734,53.724],[8.16575,53.72227],[8.16373,53.72138],[8.15418,53.71249],[8.14936,53.71199],[8.14123,53.71265],[8.13436,53.71262]]]}},{"type":"Feature","properties":{"typ":"Besonderes Schutzgebiet","name":"","seasonal":true},"geometry":{"type":"Polygon","coordinates":[[[8.53389,53.88531],[8.42924,53.8934],[8.43078,53.8921],[8.44111,53.88956],[8.44857,53.88147],[8.45556,53.87569],[8.54693,53.85613],[8.55224,53.85823],[8.55733,53.8612],[8.53389,53.88531]]]}},{"type":"Feature","properties":{"typ":"Besonderes Schutzgebiet","name":"","seasonal":true},"geometry":{"type":"Polygon","coordinates":[[[6.8213,53.60135],[6.82239,53.60151],[6.82424,53.60322],[6.82707,53.60444],[6.83009,53.60747],[6.83089,53.60867],[6.82973,53.6098],[6.83006,53.61074],[6.82786,53.61191],[6.82519,53.6123],[6.81794,53.61211],[6.81229,53.60695],[6.81543,53.6057],[6.81805,53.60545],[6.82059,53.60306],[6.8213,53.60135]]]}},{"type":"Feature","properties":{"typ":"Besonderes Schutzgebiet","name":"","seasonal":true},"geometry":{"type":"Polygon","coordinates":[[[7.92013,53.73683],[7.92162,53.75762],[7.86783,53.76175],[7.8662,53.75643],[7.86348,53.75395],[7.86147,53.75102],[7.85856,53.74802],[7.85453,53.7442],[7.85292,53.74324],[7.85288,53.74011],[7.92013,53.73683]]]}},{"type":"Feature","properties":{"typ":"Besonderes Schutzgebiet","name":"","seasonal":true},"geometry":{"type":"Polygon","coordinates":[[[7.73484,53.73194],[7.74404,53.73298],[7.75582,53.7365],[7.76464,53.73783],[7.76404,53.74592],[7.71552,53.74533],[7.72073,53.73158],[7.73484,53.73194]]]}},{"type":"Feature","properties":{"typ":"Besonderes Schutzgebiet","name":"","seasonal":true},"geometry":{"type":"Polygon","coordinates":[[[7.06314,53.64459],[7.00303,53.62754],[7.00655,53.6106],[7.01583,53.60191],[7.05333,53.60332],[7.08543,53.6344],[7.06314,53.64459]]]}},{"type":"Feature","properties":{"typ":"Besonderes Schutzgebiet","name":"","seasonal":true},"geometry":{"type":"Polygon","coordinates":[[[8.36545,53.64372],[8.39858,53.65061],[8.37989,53.65957],[8.37089,53.66474],[8.35443,53.67937],[8.34764,53.68392],[8.3575,53.66028],[8.36545,53.64372]]]}},{"type":"Feature","properties":{"typ":"Besonderes Schutzgebiet","name":"","seasonal":true},"geometry":{"type":"Polygon","coordinates":[[[8.19714,53.44679],[8.22874,53.447],[8.23106,53.45297],[8.22822,53.46384],[8.20098,53.47284],[8.18571,53.45502],[8.19714,53.44679]]]}},{"type":"Feature","properties":{"typ":"Besonderes Schutzgebiet","name":"","seasonal":true},"geometry":{"type":"Polygon","coordinates":[[[7.66381,53.72409],[7.68261,53.74294],[7.67133,53.74422],[7.64473,53.74384],[7.64624,53.74113],[7.64783,53.73402],[7.6477,53.73083],[7.64905,53.72882],[7.65059,53.72746],[7.66381,53.72409]]]}},{"type":"Feature","properties":{"typ":"Besonderes Schutzgebiet","name":"","seasonal":true},"geometry":{"type":"Polygon","coordinates":[[[7.84201,53.76315],[7.83862,53.76675],[7.82936,53.77257],[7.82691,53.77654],[7.8226,53.77628],[7.82075,53.77522],[7.82053,53.77337],[7.82396,53.76418],[7.85335,53.74692],[7.85726,53.74943],[7.8588,53.75228],[7.85918,53.75674],[7.85853,53.75892],[7.85488,53.76128],[7.84201,53.76315]]]}},{"type":"Feature","properties":{"typ":"Besonderes Schutzgebiet","name":"","seasonal":true},"geometry":{"type":"Polygon","coordinates":[[[8.39515,53.68798],[8.39263,53.69204],[8.37721,53.70808],[8.36771,53.71588],[8.35131,53.72534],[8.34993,53.72528],[8.35112,53.72383],[8.35116,53.72229],[8.35054,53.72147],[8.34421,53.72113],[8.33878,53.72338],[8.33458,53.72593],[8.33585,53.70514],[8.34024,53.70265],[8.36502,53.69407],[8.37536,53.68988],[8.3853,53.68458],[8.39423,53.67835],[8.3973,53.67912],[8.39541,53.68184],[8.3958,53.6845],[8.39515,53.68798]]]}},{"type":"Feature","properties":{"typ":"Besonderes Schutzgebiet","name":"","seasonal":true},"geometry":{"type":"Polygon","coordinates":[[[6.64558,53.59376],[6.63997,53.59741],[6.63909,53.59924],[6.64319,53.60379],[6.64586,53.61218],[6.62645,53.61057],[6.62175,53.59556],[6.63472,53.59261],[6.63485,53.59132],[6.63636,53.58925],[6.63964,53.58747],[6.64502,53.58641],[6.64948,53.58687],[6.64998,53.58766],[6.64974,53.58823],[6.64586,53.59137],[6.64558,53.59376]]]}},{"type":"Feature","properties":{"typ":"Allgemeines Schutzgebiet","name":"","seasonal":true},"geometry":{"type":"Polygon","coordinates":[[[6.69204,53.57737],[6.6792,53.57549],[6.6792,53.57429],[6.68673,53.57142],[6.69495,53.56723],[6.69467,53.56802],[6.6993,53.56868],[6.69962,53.56792],[6.69877,53.56776],[6.69812,53.56496],[6.70437,53.56322],[6.71181,53.55885],[6.71356,53.55701],[6.71385,53.55507],[6.71288,53.55448],[6.71395,53.55264],[6.72491,53.55378],[6.74075,53.55693],[6.74314,53.56761],[6.73949,53.56903],[6.71153,53.57687],[6.70972,53.57679],[6.70523,53.5754],[6.70134,53.57529],[6.69804,53.57574],[6.6951,53.57726],[6.69204,53.57737]]]}},{"type":"Feature","properties":{"typ":"Allgemeines Schutzgebiet","name":"","seasonal":true},"geometry":{"type":"Polygon","coordinates":[[[6.64319,53.60379],[6.64586,53.61218],[6.62645,53.61057],[6.62175,53.59556],[6.63472,53.59261],[6.63485,53.59132],[6.6361,53.58955],[6.63879,53.58774],[6.64438,53.58646],[6.64923,53.58671],[6.64994,53.58793],[6.6461,53.59101],[6.64548,53.59244],[6.64558,53.59376],[6.63997,53.59741],[6.63909,53.59924],[6.64319,53.60379]]]}},{"type":"Feature","properties":{"typ":"Allgemeines Schutzgebiet","name":"","seasonal":true},"geometry":{"type":"Polygon","coordinates":[[[6.87778,53.69139],[7,53.705],[7.31806,53.74583],[7.31806,53.80361],[7.07615,53.82288],[6.58083,53.75306],[6.58083,53.63333],[6.68833,53.64389],[6.73281,53.63085],[6.77,53.63083],[6.81,53.675],[6.87778,53.69139]]]}},{"type":"Feature","properties":{"typ":"Allgemeines Schutzgebiet","name":"","seasonal":true},"geometry":{"type":"Polygon","coordinates":[[[6.95405,53.67716],[6.95402,53.67889],[6.9268,53.67589],[6.9096,53.67319],[6.89052,53.67155],[6.89004,53.67385],[6.87312,53.67327],[6.86045,53.67179],[6.84441,53.66902],[6.84239,53.66915],[6.83896,53.67071],[6.83406,53.67073],[6.83003,53.66808],[6.82945,53.66716],[6.83035,53.66392],[6.83409,53.65882],[6.83436,53.65732],[6.834,53.65626],[6.82645,53.6617],[6.81602,53.66537],[6.81378,53.66518],[6.81614,53.66424],[6.81649,53.66365],[6.81577,53.66289],[6.81339,53.66213],[6.80772,53.66242],[6.80342,53.66379],[6.79923,53.66311],[6.79776,53.6615],[6.79951,53.65782],[6.80439,53.65022],[6.81349,53.64468],[6.81333,53.64393],[6.81259,53.64358],[6.80506,53.64218],[6.80419,53.64117],[6.80476,53.64032],[6.81236,53.63989],[6.81646,53.6385],[6.82364,53.6351],[6.82529,53.63481],[6.83345,53.63376],[6.84461,53.63375],[6.87809,53.62531],[6.88816,53.62375],[6.89489,53.6232],[6.89928,53.6234],[6.91887,53.62709],[6.93214,53.63071],[6.94515,53.63525],[6.95903,53.6382],[6.95779,53.63731],[6.95827,53.63733],[6.96027,53.63858],[6.96072,53.64015],[6.95554,53.64242],[6.95429,53.64496],[6.95465,53.64622],[6.95788,53.64825],[6.95759,53.6475],[6.95514,53.64597],[6.95515,53.64392],[6.9572,53.64215],[6.96137,53.6409],[6.96188,53.63831],[6.96077,53.63673],[6.955,53.63405],[6.9596,53.63269],[6.96563,53.63259],[6.96627,53.63222],[6.96626,53.6316],[6.96888,53.63213],[6.9706,53.63732],[6.97113,53.63836],[6.97179,53.63859],[6.97151,53.63983],[6.97,53.63922],[6.96968,53.63988],[6.97305,53.64288],[6.9741,53.64444],[6.97449,53.64603],[6.97405,53.64746],[6.97233,53.64928],[6.96884,53.65161],[6.96786,53.65401],[6.96976,53.65613],[6.97474,53.65904],[6.97548,53.66051],[6.97385,53.66051],[6.97037,53.6617],[6.96383,53.66304],[6.95933,53.66249],[6.95545,53.67442],[6.95393,53.67422],[6.95419,53.67547],[6.95497,53.67609],[6.95545,53.6759],[6.95405,53.67716]],[[6.89122,53.67007],[6.89889,53.66994],[6.90203,53.66944],[6.9028,53.66892],[6.90515,53.66899],[6.90566,53.66835],[6.90319,53.66793],[6.90368,53.66781],[6.89294,53.66763],[6.89168,53.6681],[6.88909,53.66804],[6.88906,53.66842],[6.89019,53.66864],[6.89072,53.67003],[6.89122,53.67007]],[[6.94278,53.67196],[6.94467,53.67206],[6.94101,53.6715],[6.94278,53.67196]]]}},{"type":"Feature","properties":{"typ":"Allgemeines Schutzgebiet","name":"","seasonal":true},"geometry":{"type":"Polygon","coordinates":[[[7.03667,53.68205],[7.03242,53.68161],[7.02203,53.67888],[7.01492,53.67785],[7.01398,53.67724],[7.0144,53.67646],[7.0184,53.67583],[7.02151,53.67595],[7.03121,53.67656],[7.03444,53.67751],[7.03838,53.67749],[7.04042,53.67831],[7.05178,53.67877],[7.05115,53.68066],[7.05044,53.68082],[7.0468,53.68155],[7.04322,53.68085],[7.04182,53.68159],[7.03667,53.68205]]]}},{"type":"Feature","properties":{"typ":"Allgemeines Schutzgebiet","name":"","seasonal":true},"geometry":{"type":"Polygon","coordinates":[[[7.09727,53.70071],[7.09092,53.69963],[7.08942,53.69889],[7.09273,53.69775],[7.09286,53.69678],[7.09183,53.69617],[7.09193,53.6955],[7.10237,53.69135],[7.1033,53.69068],[7.1029,53.69015],[7.09519,53.69108],[7.0903,53.69282],[7.08421,53.69343],[7.07836,53.69332],[7.07833,53.67048],[7.08783,53.67291],[7.09553,53.67556],[7.10157,53.67887],[7.10828,53.68471],[7.10864,53.6882],[7.10929,53.6897],[7.1091,53.69056],[7.10694,53.69289],[7.10241,53.69581],[7.09727,53.70071]]]}},{"type":"Feature","properties":{"typ":"Allgemeines Schutzgebiet","name":"","seasonal":true},"geometry":{"type":"Polygon","coordinates":[[[7.35102,53.73323],[7.34441,53.73269],[7.34131,53.73134],[7.3221,53.72988],[7.32222,53.72472],[7.26625,53.72224],[7.26624,53.72184],[7.26507,53.72127],[7.26316,53.72161],[7.25959,53.72066],[7.25898,53.72134],[7.2579,53.72137],[7.25439,53.72006],[7.25178,53.72051],[7.2441,53.7202],[7.2422,53.72066],[7.24044,53.72],[7.2383,53.71989],[7.23755,53.719],[7.23595,53.71841],[7.23663,53.71791],[7.23684,53.71702],[7.23567,53.71686],[7.23542,53.71743],[7.23474,53.71711],[7.23464,53.71802],[7.23535,53.71862],[7.23756,53.71908],[7.23771,53.71992],[7.23026,53.72156],[7.2283,53.72162],[7.22754,53.7208],[7.22605,53.7161],[7.22747,53.71506],[7.22968,53.71554],[7.23113,53.71453],[7.23315,53.71491],[7.23599,53.71437],[7.23729,53.71496],[7.24208,53.71499],[7.24494,53.71445],[7.24525,53.71362],[7.24678,53.71368],[7.24614,53.71411],[7.24882,53.71419],[7.25019,53.71245],[7.25593,53.71268],[7.25776,53.71352],[7.26111,53.71133],[7.26269,53.70802],[7.26261,53.70699],[7.26196,53.7062],[7.25999,53.70543],[7.23662,53.70461],[7.22297,53.70529],[7.2178,53.70582],[7.21625,53.70651],[7.20334,53.70744],[7.20297,53.70784],[7.20043,53.70802],[7.19916,53.70767],[7.19261,53.7088],[7.17681,53.70874],[7.17754,53.70794],[7.17849,53.70227],[7.1792,53.7018],[7.19428,53.69949],[7.19673,53.69984],[7.19877,53.70095],[7.20096,53.70531],[7.21528,53.70444],[7.21527,53.70278],[7.22439,53.70276],[7.2244,53.69674],[7.2304,53.69661],[7.23689,53.69574],[7.25797,53.69136],[7.26058,53.69143],[7.26555,53.69259],[7.27086,53.69456],[7.27722,53.69779],[7.28635,53.70044],[7.29691,53.69631],[7.30795,53.69842],[7.31426,53.69822],[7.32371,53.70108],[7.32583,53.70236],[7.32665,53.70366],[7.33574,53.70586],[7.3392,53.7088],[7.34561,53.7125],[7.34555,53.71403],[7.348,53.71674],[7.34886,53.71839],[7.34926,53.72411],[7.35128,53.72562],[7.35432,53.72679],[7.35647,53.73262],[7.35102,53.73323]]]}},{"type":"Feature","properties":{"typ":"Allgemeines Schutzgebiet","name":"","seasonal":true},"geometry":{"type":"Polygon","coordinates":[[[7.27867,53.67251],[7.27787,53.67439],[7.26616,53.67332],[7.24111,53.66822],[7.24166,53.66714],[7.2252,53.66403],[7.21875,53.658],[7.21357,53.65581],[7.21449,53.65404],[7.21797,53.65532],[7.21821,53.65502],[7.22529,53.65624],[7.22578,53.65684],[7.22521,53.65993],[7.22599,53.66087],[7.22785,53.66177],[7.24335,53.66577],[7.26097,53.66813],[7.28238,53.66957],[7.2829,53.67309],[7.27867,53.67251]]]}},{"type":"Feature","properties":{"typ":"Allgemeines Schutzgebiet","name":"","seasonal":true},"geometry":{"type":"Polygon","coordinates":[[[7.36388,53.68532],[7.36333,53.68536],[7.36333,53.68333],[7.36159,53.68217],[7.35879,53.68212],[7.35483,53.6794],[7.35498,53.67827],[7.36253,53.67824],[7.37898,53.67941],[7.40858,53.68058],[7.40915,53.68218],[7.40981,53.68255],[7.43065,53.68358],[7.46256,53.68345],[7.47236,53.68291],[7.47194,53.68489],[7.46422,53.68594],[7.43951,53.6862],[7.39678,53.68361],[7.39007,53.68403],[7.3755,53.68297],[7.3722,53.68394],[7.37006,53.68406],[7.3681,53.68496],[7.36388,53.68532]]]}},{"type":"Feature","properties":{"typ":"Allgemeines Schutzgebiet","name":"","seasonal":true},"geometry":{"type":"Polygon","coordinates":[[[7.33584,53.6848],[7.33527,53.68614],[7.30638,53.68232],[7.30556,53.68333],[7.28306,53.68028],[7.28519,53.67646],[7.28365,53.67288],[7.28674,53.67372],[7.28476,53.67016],[7.28613,53.66969],[7.29071,53.6698],[7.29769,53.6708],[7.30111,53.67189],[7.30806,53.67309],[7.3395,53.67726],[7.34841,53.67765],[7.34546,53.68596],[7.33584,53.6848]]]}},{"type":"Feature","properties":{"typ":"Allgemeines Schutzgebiet","name":"","seasonal":true},"geometry":{"type":"Polygon","coordinates":[[[7.01917,53.48889],[6.97645,53.48892],[6.98155,53.48606],[6.98307,53.48445],[6.98349,53.4828],[6.96968,53.46719],[6.96618,53.46648],[6.96349,53.46533],[6.96187,53.46406],[6.95986,53.46149],[6.95592,53.45291],[6.95633,53.45233],[6.96075,53.45042],[6.95944,53.44809],[6.95946,53.44708],[6.96392,53.44273],[6.97763,53.44123],[7.01465,53.4412],[7.01303,53.43613],[7.01661,53.43572],[7.02498,53.46116],[7.03183,53.4661],[7.03267,53.4697],[7.03224,53.47202],[7.02913,53.4787],[7.02801,53.48223],[7.02823,53.48366],[7.01917,53.48889]]]}},{"type":"Feature","properties":{"typ":"Allgemeines Schutzgebiet","name":"","seasonal":true},"geometry":{"type":"Polygon","coordinates":[[[7.4403,53.72644],[7.43002,53.72648],[7.42718,53.72563],[7.42121,53.72585],[7.41717,53.72481],[7.4058,53.72436],[7.40395,53.7243],[7.40345,53.72499],[7.40256,53.72514],[7.39743,53.72438],[7.39838,53.72318],[7.40046,53.72317],[7.40046,53.72273],[7.39854,53.72276],[7.39873,53.72146],[7.39825,53.72125],[7.39381,53.72155],[7.39347,53.72222],[7.39266,53.72246],[7.39264,53.7203],[7.39798,53.72027],[7.3975,53.70778],[7.42132,53.70778],[7.42674,53.70827],[7.43083,53.71039],[7.44149,53.71367],[7.44519,53.71614],[7.44662,53.7195],[7.44365,53.72322],[7.44133,53.7249],[7.4403,53.72644]]]}},{"type":"Feature","properties":{"typ":"Allgemeines Schutzgebiet","name":"","seasonal":true},"geometry":{"type":"Polygon","coordinates":[[[7.45151,53.71623],[7.44032,53.70534],[7.44058,53.70291],[7.44222,53.70082],[7.44416,53.69945],[7.44305,53.69958],[7.44365,53.69871],[7.44326,53.69722],[7.47454,53.69722],[7.47294,53.69934],[7.47086,53.69893],[7.47288,53.70055],[7.47274,53.70709],[7.4711,53.70761],[7.46638,53.70784],[7.4638,53.71055],[7.45722,53.71258],[7.45151,53.71623]]]}},{"type":"Feature","properties":{"typ":"Allgemeines Schutzgebiet","name":"","seasonal":true},"geometry":{"type":"Polygon","coordinates":[[[7.47789,53.71197],[7.47619,53.71203],[7.47565,53.71136],[7.47735,53.70593],[7.47603,53.70088],[7.47813,53.69704],[7.48119,53.6949],[7.48568,53.69329],[7.49812,53.69132],[7.48764,53.68143],[7.49107,53.68048],[7.48912,53.67797],[7.49445,53.67598],[7.5155,53.6703],[7.52685,53.67039],[7.53405,53.67252],[7.54428,53.67403],[7.51877,53.70551],[7.51105,53.70955],[7.50459,53.71173],[7.47789,53.71197]]]}},{"type":"Feature","properties":{"typ":"Allgemeines Schutzgebiet","name":"","seasonal":true},"geometry":{"type":"Polygon","coordinates":[[[7.60447,53.68783],[7.60158,53.69273],[7.57498,53.69241],[7.57528,53.68194],[7.58591,53.68137],[7.60447,53.68783]]]}},{"type":"Feature","properties":{"typ":"Allgemeines Schutzgebiet","name":"","seasonal":true},"geometry":{"type":"Polygon","coordinates":[[[7.46805,53.73155],[7.46361,53.73167],[7.46289,53.72977],[7.46042,53.72657],[7.46033,53.72555],[7.46094,53.72438],[7.46487,53.7231],[7.465,53.72222],[7.47056,53.72028],[7.47444,53.72],[7.48,53.72],[7.49,53.72111],[7.49167,53.72266],[7.49013,53.72515],[7.48316,53.72881],[7.48032,53.72966],[7.46805,53.73155]]]}},{"type":"Feature","properties":{"typ":"Allgemeines Schutzgebiet","name":"","seasonal":true},"geometry":{"type":"Polygon","coordinates":[[[7.58216,53.75772],[7.57098,53.75805],[7.5562,53.75704],[7.55715,53.75584],[7.55363,53.75447],[7.55339,53.75305],[7.55215,53.75209],[7.54936,53.75135],[7.54918,53.74999],[7.53271,53.74991],[7.53129,53.75153],[7.53316,53.75428],[7.52448,53.75433],[7.52425,53.75182],[7.52362,53.75194],[7.52354,53.75159],[7.52358,53.75071],[7.52449,53.7493],[7.51105,53.74919],[7.5104,53.74533],[7.50497,53.74137],[7.50857,53.74047],[7.51467,53.74144],[7.52679,53.74182],[7.52696,53.73065],[7.5331,53.73172],[7.54021,53.73221],[7.54327,53.73132],[7.54257,53.731],[7.54284,53.73077],[7.54691,53.73076],[7.55203,53.73003],[7.55183,53.72901],[7.55255,53.72868],[7.56157,53.72653],[7.56943,53.72551],[7.57396,53.72548],[7.57698,53.72622],[7.58284,53.72946],[7.58675,53.73084],[7.59804,53.73051],[7.6155,53.73177],[7.62031,53.73287],[7.62964,53.73617],[7.63145,53.73771],[7.63422,53.74152],[7.63886,53.74405],[7.64048,53.74911],[7.64328,53.75307],[7.62147,53.74782],[7.61692,53.75268],[7.61445,53.75337],[7.61433,53.75693],[7.59984,53.75758],[7.58931,53.75655],[7.58576,53.75682],[7.58216,53.75772]],[[7.59426,53.7504],[7.59795,53.75052],[7.60594,53.74952],[7.60585,53.74902],[7.60136,53.74817],[7.59271,53.7492],[7.59317,53.75001],[7.59426,53.7504]]]}},{"type":"Feature","properties":{"typ":"Allgemeines Schutzgebiet","name":"","seasonal":true},"geometry":{"type":"Polygon","coordinates":[[[7.61948,53.76225],[7.61412,53.76235],[7.61445,53.75337],[7.61692,53.75268],[7.62147,53.74782],[7.64328,53.75307],[7.6448,53.7569],[7.64487,53.75924],[7.6441,53.76074],[7.64308,53.76144],[7.61948,53.76225]]]}},{"type":"Feature","properties":{"typ":"Allgemeines Schutzgebiet","name":"","seasonal":true},"geometry":{"type":"Polygon","coordinates":[[[7.64814,53.7515],[7.64632,53.75075],[7.64541,53.74963],[7.64494,53.74326],[7.64621,53.74122],[7.64808,53.73],[7.65169,53.7265],[7.65553,53.72427],[7.65228,53.72524],[7.65125,53.72464],[7.65179,53.72119],[7.6552,53.71883],[7.65207,53.72032],[7.65194,53.71955],[7.65147,53.71966],[7.64979,53.72683],[7.6471,53.72938],[7.6464,53.72949],[7.64659,53.72841],[7.64566,53.72883],[7.64426,53.73217],[7.64286,53.72989],[7.64255,53.72824],[7.64273,53.72681],[7.64462,53.7228],[7.62447,53.71226],[7.61876,53.71176],[7.61298,53.7101],[7.60914,53.70759],[7.61136,53.70721],[7.60734,53.70513],[7.61557,53.70541],[7.60657,53.70423],[7.60025,53.70457],[7.60768,53.70207],[7.61569,53.70173],[7.62305,53.70309],[7.63066,53.70556],[7.63134,53.70544],[7.62854,53.70439],[7.63148,53.70465],[7.63474,53.70652],[7.64151,53.70834],[7.64642,53.7083],[7.64698,53.70806],[7.64617,53.70767],[7.64895,53.70754],[7.66394,53.7101],[7.68319,53.71086],[7.69125,53.71059],[7.69279,53.7114],[7.69653,53.71579],[7.68739,53.71467],[7.69892,53.71791],[7.70138,53.7202],[7.70691,53.72347],[7.7082,53.72502],[7.70758,53.72711],[7.70102,53.73585],[7.69472,53.74139],[7.69186,53.74212],[7.67131,53.74419],[7.67059,53.74411],[7.67071,53.74338],[7.65454,53.74773],[7.65017,53.74543],[7.65145,53.74698],[7.65171,53.74813],[7.64814,53.7515]]]}},{"type":"Feature","properties":{"typ":"Allgemeines Schutzgebiet","name":"","seasonal":true},"geometry":{"type":"Polygon","coordinates":[[[7.70648,53.76921],[7.70557,53.76921],[7.7034,53.76747],[7.70241,53.76725],[7.70255,53.76292],[7.70765,53.76329],[7.71379,53.76193],[7.72835,53.76092],[7.72839,53.76199],[7.72882,53.76205],[7.72898,53.7646],[7.72548,53.76514],[7.72299,53.76647],[7.71605,53.76628],[7.71575,53.7677],[7.70903,53.76764],[7.70894,53.76872],[7.70648,53.76921]]]}},{"type":"Feature","properties":{"typ":"Allgemeines Schutzgebiet","name":"","seasonal":true},"geometry":{"type":"Polygon","coordinates":[[[7.68627,53.76903],[7.67663,53.76767],[7.67536,53.76675],[7.67105,53.75992],[7.67194,53.75998],[7.67105,53.75989],[7.67156,53.75892],[7.67572,53.75519],[7.67692,53.75482],[7.67501,53.75245],[7.68376,53.75216],[7.68426,53.75248],[7.68456,53.75362],[7.68424,53.75386],[7.68645,53.75545],[7.68839,53.75647],[7.68895,53.75624],[7.69025,53.75792],[7.69167,53.7578],[7.69372,53.76095],[7.69341,53.7617],[7.69461,53.76238],[7.69164,53.76382],[7.69145,53.76519],[7.68875,53.76771],[7.68681,53.76818],[7.68627,53.76903]]]}},{"type":"Feature","properties":{"typ":"Allgemeines Schutzgebiet","name":"","seasonal":true},"geometry":{"type":"Polygon","coordinates":[[[7.73169,53.78153],[7.72723,53.7817],[7.72306,53.77471],[7.72906,53.77172],[7.73176,53.76734],[7.73184,53.76617],[7.73046,53.76477],[7.72898,53.7646],[7.72882,53.76205],[7.72839,53.76199],[7.72834,53.74887],[7.72198,53.7496],[7.71454,53.74934],[7.71093,53.74856],[7.70142,53.74507],[7.71732,53.73279],[7.71144,53.73376],[7.71085,53.7336],[7.71094,53.73322],[7.71401,53.73147],[7.7103,53.7327],[7.7099,53.73238],[7.71051,53.73056],[7.71331,53.72797],[7.71957,53.72508],[7.72735,53.72434],[7.73386,53.72541],[7.75045,53.7302],[7.75188,53.73174],[7.76316,53.73348],[7.77022,53.73754],[7.77852,53.74088],[7.7874,53.74218],[7.79222,53.74409],[7.80192,53.74582],[7.80534,53.74743],[7.80586,53.74957],[7.80749,53.75177],[7.81038,53.75376],[7.81955,53.75805],[7.82131,53.7596],[7.82179,53.76126],[7.82007,53.76494],[7.81777,53.76681],[7.81617,53.76682],[7.81579,53.76548],[7.81459,53.76459],[7.81346,53.76469],[7.81163,53.76595],[7.81984,53.77578],[7.82392,53.77934],[7.82376,53.78036],[7.82254,53.78164],[7.77964,53.78117],[7.73169,53.78153]]]}},{"type":"Feature","properties":{"typ":"Allgemeines Schutzgebiet","name":"","seasonal":true},"geometry":{"type":"Polygon","coordinates":[[[7.03737,53.53874],[7.03956,53.53893],[7.04166,53.53668],[7.04596,53.53627],[7.04927,53.53486],[7.06057,53.52545],[7.06349,53.52188],[7.06623,53.51693],[7.06957,53.51444],[7.07306,53.51382],[7.08501,53.51386],[7.10097,53.51116],[7.10508,53.5111],[7.11394,53.5123],[7.11991,53.51438],[7.14026,53.52741],[7.14314,53.52935],[7.1444,53.5308],[7.14475,53.53223],[7.14397,53.53378],[7.13563,53.54006],[7.13558,53.54134],[7.13628,53.54279],[7.13919,53.54491],[7.13891,53.54755],[7.13758,53.54953],[7.12329,53.55465],[7.11822,53.55713],[7.11129,53.55854],[7.10502,53.56177],[7.09561,53.56466],[7.09483,53.56609],[7.08716,53.57134],[7.09099,53.57998],[7.11264,53.59465],[7.13053,53.6023],[7.11926,53.60803],[7.13075,53.6144],[7.13751,53.6199],[7.139,53.62159],[7.13935,53.62291],[7.13815,53.62679],[7.13939,53.62864],[7.13795,53.62964],[7.13816,53.6307],[7.14081,53.63222],[7.14639,53.63337],[7.14701,53.63381],[7.14756,53.63548],[7.14763,53.63686],[7.14697,53.63822],[7.14626,53.63857],[7.14549,53.63726],[7.14482,53.63765],[7.14477,53.6438],[7.14556,53.64536],[7.14544,53.64761],[7.14602,53.64938],[7.14561,53.65033],[7.13849,53.65086],[7.1332,53.65298],[7.1316,53.65409],[7.12992,53.65691],[7.12893,53.65666],[7.12135,53.66298],[7.1196,53.66377],[7.1169,53.67197],[7.11572,53.67867],[7.11454,53.68084],[7.11182,53.67796],[7.1081,53.67149],[7.09549,53.65799],[7.09454,53.65807],[7.09415,53.65873],[7.09653,53.66244],[7.09597,53.66313],[7.092,53.66091],[7.0865,53.65518],[7.08669,53.65678],[7.08915,53.6605],[7.07225,53.65688],[7.06324,53.65318],[7.05743,53.65367],[7.05561,53.65216],[7.05241,53.65095],[7.04799,53.65078],[7.04277,53.6493],[7.03715,53.6493],[7.0337,53.64866],[7.03156,53.64707],[7.03209,53.64528],[7.03315,53.64455],[7.03328,53.64318],[7.03085,53.63953],[7.02585,53.63841],[7.01865,53.63766],[7.00269,53.6394],[6.99956,53.63932],[6.99619,53.63859],[6.99489,53.63768],[6.99332,53.63562],[6.99249,53.63316],[6.99418,53.63143],[7.00085,53.62855],[7.00217,53.62837],[7.00303,53.62754],[7.00266,53.62435],[7.0007,53.62305],[6.99397,53.62166],[6.98256,53.62306],[6.97551,53.62348],[6.96874,53.6231],[6.96339,53.62382],[6.95923,53.62376],[6.95342,53.6221],[6.94477,53.6187],[6.93203,53.61724],[6.93053,53.61665],[6.93096,53.61551],[6.93657,53.61065],[6.9425,53.60717],[6.94697,53.60545],[6.94756,53.60572],[6.94515,53.60915],[6.94471,53.6114],[6.94543,53.61286],[6.94793,53.61463],[6.95063,53.6154],[6.95494,53.61523],[6.9579,53.61367],[6.95927,53.61178],[6.95857,53.60971],[6.9562,53.6084],[6.95352,53.6084],[6.94879,53.60947],[6.94791,53.60912],[6.9523,53.60101],[6.95306,53.59801],[6.95027,53.59482],[6.94957,53.59282],[6.95025,53.58839],[6.9518,53.5846],[6.94259,53.56359],[6.9429,53.5586],[6.94342,53.55658],[6.94464,53.55454],[6.9461,53.55365],[6.94698,53.55446],[6.94779,53.55441],[6.95207,53.55143],[6.96208,53.54669],[6.96502,53.54593],[6.96882,53.54595],[6.96151,53.54553],[6.96054,53.54468],[6.97268,53.5381],[6.98393,53.536],[6.98222,53.53551],[6.97747,53.53582],[6.97739,53.53541],[6.98244,53.53446],[6.98726,53.53565],[6.9889,53.53713],[6.9911,53.54061],[6.9944,53.5425],[7.00417,53.54185],[7.00417,53.49556],[7.0378,53.4952],[7.04098,53.49401],[7.04586,53.49951],[7.05016,53.50149],[7.05164,53.50273],[7.05205,53.50444],[7.05144,53.50609],[7.03972,53.51857],[7.0378,53.52134],[7.03533,53.52633],[7.0325,53.52583],[7.02944,53.53167],[7.03301,53.53226],[7.03404,53.5341],[7.03671,53.53605],[7.03737,53.53874]]]}},{"type":"Feature","properties":{"typ":"Allgemeines Schutzgebiet","name":"","seasonal":true},"geometry":{"type":"Polygon","coordinates":[[[7.79468,53.70589],[7.79434,53.71005],[7.71146,53.70236],[7.71152,53.7],[7.72474,53.69839],[7.75578,53.70049],[7.76711,53.70143],[7.77614,53.70309],[7.78877,53.70374],[7.78887,53.705],[7.79468,53.70589]]]}},{"type":"Feature","properties":{"typ":"Allgemeines Schutzgebiet","name":"","seasonal":true},"geometry":{"type":"Polygon","coordinates":[[[7.96651,53.77357],[7.96138,53.77318],[7.95633,53.772],[7.95134,53.76855],[7.94708,53.76732],[7.93886,53.76743],[7.92603,53.76623],[7.9207,53.7666],[7.91068,53.76443],[7.90417,53.76574],[7.90245,53.76668],[7.89195,53.76794],[7.88758,53.76696],[7.87394,53.76548],[7.86913,53.76446],[7.86841,53.76368],[7.86616,53.75624],[7.86348,53.75395],[7.86156,53.75115],[7.85453,53.7442],[7.85023,53.74232],[7.84694,53.73934],[7.84605,53.73949],[7.84581,53.7401],[7.84781,53.743],[7.84599,53.74309],[7.84337,53.74226],[7.84032,53.74025],[7.8365,53.73537],[7.83421,53.73483],[7.83071,53.73297],[7.81915,53.72607],[7.81644,53.72239],[7.81066,53.70988],[7.81469,53.70739],[7.86267,53.7104],[7.9073,53.71388],[7.93453,53.71479],[7.94669,53.71435],[7.96061,53.71291],[7.98762,53.71325],[7.99557,53.71241],[7.99726,53.73721],[7.99266,53.74139],[7.99143,53.74394],[7.99033,53.74857],[7.98978,53.74874],[7.98923,53.74802],[7.98878,53.7487],[7.98982,53.75304],[7.99308,53.75671],[7.99392,53.7581],[7.99395,53.75908],[7.9914,53.76068],[7.98437,53.76378],[7.97906,53.76507],[7.97851,53.76617],[7.97979,53.76761],[7.9799,53.76873],[7.97455,53.76922],[7.97329,53.76985],[7.97281,53.77089],[7.96651,53.77357]]]}},{"type":"Feature","properties":{"typ":"Allgemeines Schutzgebiet","name":"","seasonal":true},"geometry":{"type":"Polygon","coordinates":[[[7.9975,53.74139],[8.01833,53.74139],[8.01417,53.7525],[8.02639,53.74611],[8.03083,53.75639],[8.00677,53.78754],[8.00619,53.78755],[8.00592,53.78702],[8.00535,53.78441],[8.00441,53.78341],[8.00372,53.78121],[8.0041,53.77992],[8.00319,53.77602],[7.99823,53.77357],[7.99522,53.7727],[7.98868,53.77161],[7.98579,53.77187],[7.98583,53.77088],[7.98472,53.77029],[7.98538,53.7695],[7.99069,53.76713],[7.99553,53.76361],[7.99775,53.76346],[8.00172,53.76053],[8.00295,53.75882],[8.00339,53.75654],[8.00201,53.75464],[8.00075,53.75439],[8.0004,53.75604],[7.99862,53.75697],[7.99608,53.75716],[7.995,53.75585],[7.99443,53.75362],[7.99248,53.75113],[7.99352,53.74356],[7.99485,53.74097],[7.99732,53.73818],[7.9975,53.74139]]]}},{"type":"Feature","properties":{"typ":"Allgemeines Schutzgebiet","name":"","seasonal":true},"geometry":{"type":"Polygon","coordinates":[[[7.86932,53.7914],[7.86632,53.78997],[7.86499,53.79085],[7.85211,53.78889],[7.85261,53.78733],[7.85229,53.78646],[7.85365,53.78605],[7.85328,53.78538],[7.85857,53.78534],[7.85847,53.78358],[7.85653,53.78213],[7.86024,53.78012],[7.86355,53.77733],[7.86483,53.7745],[7.86656,53.77711],[7.87052,53.77612],[7.87639,53.78556],[7.88833,53.78472],[7.88861,53.78767],[7.88269,53.78803],[7.8775,53.7892],[7.87525,53.79],[7.87397,53.79137],[7.86932,53.7914]]]}},{"type":"Feature","properties":{"typ":"Allgemeines Schutzgebiet","name":"","seasonal":true},"geometry":{"type":"Polygon","coordinates":[[[7.89407,53.78654],[7.89305,53.78642],[7.89208,53.78524],[7.90747,53.78119],[7.91499,53.7802],[7.92722,53.77972],[7.97139,53.77307],[7.97449,53.7743],[7.97768,53.77631],[7.96727,53.77805],[7.95592,53.78147],[7.95302,53.78211],[7.95219,53.78143],[7.94519,53.7835],[7.94468,53.78294],[7.93297,53.78595],[7.92973,53.78157],[7.9283,53.78119],[7.91531,53.78153],[7.90813,53.78242],[7.9036,53.78446],[7.89771,53.785],[7.89407,53.78654]]]}},{"type":"Feature","properties":{"typ":"Allgemeines Schutzgebiet","name":"","seasonal":true},"geometry":{"type":"Polygon","coordinates":[[[8.09139,53.64639],[8.07639,53.66417],[8.0695,53.66258],[8.07125,53.66037],[8.08131,53.6516],[8.08742,53.64518],[8.09139,53.64639]]]}},{"type":"Feature","properties":{"typ":"Allgemeines Schutzgebiet","name":"","seasonal":true},"geometry":{"type":"Polygon","coordinates":[[[8.05391,53.6814],[8.05349,53.68168],[8.02636,53.67607],[8.02884,53.66696],[8.02796,53.66339],[8.03327,53.65272],[8.03384,53.65056],[8.03618,53.65056],[8.03445,53.65346],[8.03296,53.6544],[8.06901,53.66211],[8.06613,53.66563],[8.06097,53.6735],[8.05391,53.6814]]]}},{"type":"Feature","properties":{"typ":"Allgemeines Schutzgebiet","name":"","seasonal":true},"geometry":{"type":"Polygon","coordinates":[[[8.19418,53.40671],[8.1943,53.40713],[8.19119,53.40651],[8.1926,53.40321],[8.19519,53.39998],[8.20608,53.39137],[8.20745,53.39088],[8.209,53.39326],[8.20885,53.39428],[8.20407,53.39643],[8.19815,53.40032],[8.1953,53.40303],[8.19418,53.40671]]]}},{"type":"Feature","properties":{"typ":"Allgemeines Schutzgebiet","name":"","seasonal":true},"geometry":{"type":"Polygon","coordinates":[[[8.06033,53.50744],[8.05713,53.50602],[8.05423,53.49759],[8.05387,53.49188],[8.05513,53.48179],[8.06339,53.46499],[8.07158,53.456],[8.07954,53.44921],[8.09212,53.4417],[8.10595,53.44598],[8.10863,53.4531],[8.10624,53.45317],[8.10536,53.45386],[8.10668,53.45527],[8.10809,53.45954],[8.10961,53.4614],[8.11206,53.46262],[8.11751,53.46376],[8.12312,53.46589],[8.13366,53.47156],[8.13628,53.47414],[8.13744,53.47687],[8.13665,53.47806],[8.1374,53.4832],[8.13936,53.48876],[8.14488,53.49728],[8.14056,53.50722],[8.10222,53.49861],[8.10026,53.50337],[8.09158,53.50227],[8.07824,53.5023],[8.07422,53.50304],[8.06033,53.50744]]]}},{"type":"Feature","properties":{"typ":"Allgemeines Schutzgebiet","name":"","seasonal":true},"geometry":{"type":"Polygon","coordinates":[[[8.30387,53.52584],[8.3016,53.52658],[8.27993,53.52122],[8.28167,53.51889],[8.27528,53.51306],[8.26583,53.51194],[8.25825,53.44901],[8.25777,53.44902],[8.25724,53.45351],[8.25625,53.45568],[8.25385,53.45889],[8.25026,53.4613],[8.24835,53.4617],[8.24691,53.46129],[8.24834,53.45906],[8.25178,53.45558],[8.2523,53.45412],[8.24432,53.45801],[8.23583,53.46146],[8.20098,53.47284],[8.19416,53.47901],[8.18851,53.48318],[8.20028,53.4896],[8.19711,53.4915],[8.19646,53.49234],[8.19649,53.49337],[8.19746,53.49459],[8.19581,53.49391],[8.19455,53.49426],[8.18746,53.50069],[8.18747,53.50198],[8.18467,53.50379],[8.18529,53.50799],[8.189,53.51518],[8.16544,53.51192],[8.15935,53.50928],[8.15569,53.50644],[8.15441,53.50401],[8.15416,53.50153],[8.15526,53.49806],[8.15785,53.494],[8.16123,53.49129],[8.17957,53.47931],[8.15847,53.46406],[8.14188,53.46775],[8.12941,53.45833],[8.14346,53.45321],[8.14073,53.45141],[8.13903,53.45196],[8.13504,53.45187],[8.13185,53.44941],[8.14594,53.44567],[8.15262,53.43855],[8.18207,53.41905],[8.18725,53.41485],[8.18931,53.41138],[8.18838,53.41044],[8.19671,53.41208],[8.19702,53.40983],[8.19532,53.40685],[8.19618,53.40362],[8.19812,53.40111],[8.20101,53.39902],[8.2052,53.39663],[8.21056,53.39482],[8.21012,53.39353],[8.21072,53.39179],[8.20961,53.39079],[8.21214,53.39158],[8.23089,53.39052],[8.24198,53.39072],[8.25521,53.39344],[8.26273,53.39712],[8.28812,53.41996],[8.29205,53.42294],[8.30161,53.43362],[8.29753,53.4355],[8.29686,53.43447],[8.29468,53.43533],[8.29028,53.43528],[8.29333,53.44389],[8.29749,53.44291],[8.2966,53.44222],[8.29789,53.44173],[8.29656,53.43841],[8.29885,53.43751],[8.29757,53.43555],[8.30192,53.43391],[8.30458,53.43654],[8.30549,53.43638],[8.31033,53.44116],[8.31018,53.44215],[8.31499,53.44718],[8.31711,53.4522],[8.31781,53.4542],[8.31762,53.45512],[8.32664,53.50696],[8.3237,53.51408],[8.31757,53.52176],[8.30387,53.52584]],[[8.30997,53.5183],[8.30717,53.51746],[8.30604,53.51904],[8.30878,53.51988],[8.30997,53.5183]]]}},{"type":"Feature","properties":{"typ":"Allgemeines Schutzgebiet","name":"","seasonal":true},"geometry":{"type":"Polygon","coordinates":[[[8.16528,53.75805],[8.1325,53.78278],[8.09306,53.72861],[8.15083,53.67028],[8.17942,53.59869],[8.1864,53.60008],[8.19249,53.60435],[8.20041,53.60676],[8.20229,53.6081],[8.19972,53.60839],[8.19968,53.60879],[8.20267,53.60901],[8.20525,53.60853],[8.21745,53.6095],[8.22613,53.61126],[8.22794,53.61095],[8.23312,53.60742],[8.23373,53.60474],[8.23296,53.60621],[8.23275,53.6043],[8.23379,53.60227],[8.23912,53.60011],[8.2517,53.5922],[8.2628,53.59985],[8.27488,53.60497],[8.27467,53.6052],[8.28967,53.60843],[8.29877,53.60894],[8.29906,53.60979],[8.30198,53.61283],[8.30501,53.61395],[8.31408,53.61444],[8.32317,53.61363],[8.33178,53.61216],[8.34544,53.60694],[8.34553,53.60608],[8.34618,53.60588],[8.34717,53.60687],[8.3499,53.60729],[8.34736,53.6112],[8.34695,53.61304],[8.34735,53.61612],[8.3492,53.61749],[8.3551,53.61966],[8.3594,53.62219],[8.36011,53.62389],[8.35936,53.62603],[8.35627,53.62825],[8.35594,53.62793],[8.35681,53.62687],[8.3567,53.62637],[8.35382,53.62696],[8.35162,53.62556],[8.34777,53.62761],[8.3464,53.62753],[8.33877,53.62971],[8.33409,53.63195],[8.32956,53.63511],[8.32186,53.63826],[8.31954,53.64009],[8.31789,53.64323],[8.31655,53.64927],[8.31373,53.65754],[8.31766,53.67286],[8.31842,53.68405],[8.31931,53.68831],[8.31947,53.69184],[8.32038,53.69442],[8.25385,53.71737],[8.25289,53.71602],[8.24339,53.71045],[8.23525,53.70728],[8.23277,53.70744],[8.23027,53.70871],[8.22837,53.71072],[8.22845,53.71476],[8.22682,53.71916],[8.22754,53.72256],[8.22845,53.72367],[8.23213,53.72599],[8.16528,53.75805]]]}},{"type":"Feature","properties":{"typ":"Allgemeines Schutzgebiet","name":"","seasonal":true},"geometry":{"type":"Polygon","coordinates":[[[8.37992,53.65958],[8.37089,53.66474],[8.3575,53.66028],[8.37417,53.62556],[8.36333,53.61167],[8.37539,53.58803],[8.38601,53.5878],[8.395,53.59222],[8.43861,53.59167],[8.45884,53.60499],[8.45657,53.60681],[8.45629,53.6101],[8.45482,53.61437],[8.45434,53.61856],[8.45172,53.62248],[8.45166,53.62509],[8.37992,53.65958]]]}},{"type":"Feature","properties":{"typ":"Allgemeines Schutzgebiet","name":"","seasonal":true},"geometry":{"type":"Polygon","coordinates":[[[8.42,53.57667],[8.3883,53.5851],[8.38325,53.5834],[8.39765,53.57209],[8.41368,53.56914],[8.44134,53.57171],[8.43665,53.57667],[8.42,53.57667]]]}},{"type":"Feature","properties":{"typ":"Allgemeines Schutzgebiet","name":"","seasonal":true},"geometry":{"type":"Polygon","coordinates":[[[8.51669,53.55849],[8.46722,53.55445],[8.46751,53.55092],[8.47731,53.55245],[8.48722,53.54919],[8.50671,53.54458],[8.51396,53.54185],[8.52431,53.5422],[8.53002,53.5395],[8.54562,53.53921],[8.5483,53.53866],[8.51802,53.55832],[8.51669,53.55849]]]}},{"type":"Feature","properties":{"typ":"Allgemeines Schutzgebiet","name":"","seasonal":true},"geometry":{"type":"Polygon","coordinates":[[[8.48417,53.69361],[8.47556,53.69361],[8.47556,53.67528],[8.42266,53.67528],[8.42918,53.66732],[8.43235,53.66181],[8.45605,53.64993],[8.45871,53.64834],[8.46253,53.64503],[8.49358,53.65055],[8.49142,53.65639],[8.48766,53.66204],[8.48525,53.67118],[8.48423,53.678],[8.48417,53.69361]]]}},{"type":"Feature","properties":{"typ":"Allgemeines Schutzgebiet","name":"","seasonal":true},"geometry":{"type":"Polygon","coordinates":[[[8.51178,53.73088],[8.50814,53.73175],[8.50666,53.72952],[8.50644,53.728],[8.50516,53.72672],[8.50513,53.72582],[8.50366,53.72407],[8.50209,53.72374],[8.5009,53.7224],[8.49923,53.71966],[8.49948,53.71896],[8.49763,53.71706],[8.49907,53.7163],[8.49673,53.71243],[8.49526,53.71152],[8.49732,53.71111],[8.51178,53.73088]]]}},{"type":"Feature","properties":{"typ":"Allgemeines Schutzgebiet","name":"","seasonal":true},"geometry":{"type":"Polygon","coordinates":[[[8.33541,53.72542],[8.33458,53.72593],[8.33585,53.70514],[8.34024,53.70265],[8.36502,53.69407],[8.37536,53.68988],[8.3853,53.68458],[8.39423,53.67835],[8.3973,53.67912],[8.39541,53.68184],[8.39558,53.68687],[8.39353,53.69099],[8.37721,53.70808],[8.36978,53.71439],[8.36103,53.71993],[8.35131,53.72534],[8.34993,53.72528],[8.35112,53.72383],[8.35116,53.72229],[8.35054,53.72147],[8.34421,53.72113],[8.33878,53.72338],[8.33541,53.72542]]]}},{"type":"Feature","properties":{"typ":"Allgemeines Schutzgebiet","name":"","seasonal":true},"geometry":{"type":"Polygon","coordinates":[[[8.24806,53.79445],[8.19223,53.7966],[8.19222,53.77361],[8.29417,53.7475],[8.27833,53.76917],[8.24806,53.79445]]]}},{"type":"Feature","properties":{"typ":"Allgemeines Schutzgebiet","name":"","seasonal":true},"geometry":{"type":"Polygon","coordinates":[[[8.31197,53.92701],[8.30871,53.9272],[8.29083,53.95],[8.21102,53.98073],[8.05401,53.92915],[8.08221,53.89251],[8.19223,53.84475],[8.19222,53.88667],[8.29224,53.76827],[8.30072,53.76416],[8.30645,53.76265],[8.31134,53.75976],[8.32827,53.75131],[8.33962,53.74721],[8.35202,53.74189],[8.35735,53.73866],[8.37936,53.73131],[8.38011,53.73074],[8.38069,53.72934],[8.38316,53.72763],[8.3944,53.72293],[8.39464,53.72238],[8.39327,53.7205],[8.40265,53.71561],[8.41135,53.71246],[8.40902,53.71162],[8.40985,53.71088],[8.4169,53.71046],[8.42103,53.71125],[8.42506,53.71291],[8.4284,53.71496],[8.43514,53.72031],[8.43788,53.72091],[8.44418,53.72044],[8.45042,53.72159],[8.45494,53.72286],[8.45542,53.72405],[8.45804,53.72581],[8.46253,53.72653],[8.46795,53.72865],[8.46693,53.73275],[8.46467,53.73549],[8.45926,53.73866],[8.45604,53.7396],[8.45407,53.74075],[8.45096,53.74377],[8.44859,53.74713],[8.44736,53.75061],[8.44726,53.75478],[8.44937,53.76543],[8.44907,53.77025],[8.44751,53.77309],[8.45989,53.77996],[8.46603,53.77996],[8.46866,53.7795],[8.47114,53.78062],[8.47296,53.7826],[8.47458,53.78712],[8.47572,53.78845],[8.4823,53.79318],[8.48889,53.79511],[8.49275,53.79522],[8.48914,53.79405],[8.49656,53.79426],[8.49938,53.79492],[8.50368,53.79666],[8.50751,53.79969],[8.51027,53.80055],[8.515,53.80092],[8.52102,53.79857],[8.52555,53.79612],[8.52654,53.7954],[8.52739,53.79388],[8.52893,53.79324],[8.53753,53.79181],[8.53787,53.79301],[8.54333,53.79194],[8.54923,53.80816],[8.55072,53.80984],[8.55254,53.81324],[8.55348,53.81624],[8.5612,53.81899],[8.5646,53.82378],[8.56639,53.82833],[8.56767,53.82951],[8.57244,53.83903],[8.57553,53.84142],[8.57661,53.84333],[8.57731,53.84362],[8.5753,53.8441],[8.57471,53.84338],[8.57356,53.84456],[8.56606,53.84601],[8.5541,53.84467],[8.55242,53.84376],[8.54756,53.83843],[8.54393,53.83573],[8.53972,53.83504],[8.53578,53.83503],[8.53275,53.83553],[8.53094,53.83658],[8.52891,53.84019],[8.532,53.8424],[8.536,53.84361],[8.53725,53.84441],[8.53933,53.84946],[8.54287,53.85373],[8.54586,53.85565],[8.55185,53.85804],[8.55733,53.8612],[8.53401,53.88508],[8.42924,53.8934],[8.43067,53.89213],[8.44111,53.88956],[8.44857,53.88147],[8.45566,53.87562],[8.41763,53.88638],[8.4123,53.88852],[8.3862,53.89418],[8.37661,53.89536],[8.36718,53.90025],[8.36291,53.90342],[8.35399,53.90879],[8.35232,53.91015],[8.34752,53.91606],[8.34091,53.92089],[8.32052,53.92551],[8.31197,53.92701]]]}},{"type":"Feature","properties":{"typ":"Allgemeines Schutzgebiet","name":"","seasonal":true},"geometry":{"type":"Polygon","coordinates":[[[7.45639,53.80361],[7.45639,53.76333],[7.8725,53.81167],[8.01773,53.78559],[7.76231,53.85568],[7.45639,53.80361]]]}},{"type":"Feature","properties":{"typ":"Allgemeines Schutzgebiet","name":"","seasonal":true},"geometry":{"type":"Polygon","coordinates":[[[6.84411,53.61244],[6.821,53.61232],[6.80666,53.61099],[6.80973,53.60858],[6.81404,53.60621],[6.81825,53.6053],[6.82039,53.60331],[6.82111,53.60175],[6.8186,53.60178],[6.8177,53.6027],[6.81329,53.60446],[6.7874,53.61005],[6.76717,53.61577],[6.76404,53.61052],[6.77276,53.60716],[6.77649,53.60426],[6.77644,53.60223],[6.77414,53.60205],[6.7715,53.60271],[6.76628,53.602],[6.76522,53.6023],[6.76102,53.60031],[6.75815,53.5979],[6.74487,53.59436],[6.74303,53.59341],[6.73532,53.5984],[6.73326,53.60043],[6.72549,53.60309],[6.72355,53.60286],[6.72317,53.60333],[6.71987,53.6024],[6.7114,53.59759],[6.72388,53.59138],[6.72145,53.58977],[6.71797,53.59006],[6.72064,53.58848],[6.71935,53.58827],[6.71319,53.58948],[6.71356,53.58806],[6.71441,53.58763],[6.71434,53.58697],[6.71509,53.58664],[6.71587,53.58537],[6.71933,53.58595],[6.72095,53.58575],[6.75695,53.57712],[6.7572,53.57498],[6.75897,53.57052],[6.7615,53.56965],[6.7635,53.56822],[6.7669,53.56216],[6.76959,53.55935],[6.77193,53.55783],[6.76837,53.55804],[6.76959,53.55731],[6.77207,53.55674],[6.77572,53.55679],[6.78645,53.5612],[6.79561,53.56241],[6.80134,53.56193],[6.80807,53.55962],[6.81615,53.55925],[6.80748,53.55938],[6.80283,53.56102],[6.79831,53.56161],[6.79201,53.56141],[6.78464,53.55982],[6.77964,53.55736],[6.79709,53.56006],[6.79803,53.55987],[6.79803,53.55883],[6.77756,53.55552],[6.77161,53.55608],[6.76246,53.55947],[6.75962,53.55961],[6.75147,53.55573],[6.74636,53.55416],[6.73434,53.55266],[6.71891,53.55155],[6.71787,53.55103],[6.71888,53.5505],[6.72524,53.54967],[6.73581,53.54993],[6.73634,53.54958],[6.73684,53.54674],[6.74177,53.5473],[6.74608,53.54676],[6.75918,53.54127],[6.76932,53.53769],[6.76957,53.53729],[6.75752,53.53709],[6.76646,53.53104],[6.77301,53.52928],[6.77603,53.52781],[6.78096,53.52363],[6.78491,53.51921],[6.78922,53.51647],[6.82715,53.50203],[6.83526,53.50006],[6.84305,53.50028],[6.84968,53.50178],[6.85827,53.50484],[6.87179,53.50653],[6.87731,53.50812],[6.88355,53.51074],[6.95288,53.51195],[6.95385,53.51365],[6.95374,53.51422],[6.95068,53.51466],[6.94835,53.51596],[6.94422,53.51678],[6.94208,53.51872],[6.94142,53.51867],[6.93978,53.51676],[6.9388,53.51641],[6.93773,53.52104],[6.93329,53.51984],[6.93438,53.52093],[6.93466,53.52212],[6.93226,53.52751],[6.93205,53.53195],[6.92736,53.53686],[6.92462,53.53629],[6.92699,53.53777],[6.92716,53.54112],[6.92669,53.54314],[6.92291,53.55192],[6.9225,53.56149],[6.92193,53.5629],[6.91798,53.56466],[6.91327,53.5677],[6.90717,53.56598],[6.90641,53.56511],[6.90318,53.56549],[6.90508,53.57139],[6.90468,53.57567],[6.90502,53.57761],[6.90612,53.57971],[6.90978,53.58307],[6.90978,53.58367],[6.90634,53.58471],[6.90406,53.588],[6.89511,53.59433],[6.89388,53.5945],[6.89016,53.59227],[6.88976,53.59253],[6.89176,53.59454],[6.89191,53.5955],[6.88263,53.60079],[6.85911,53.60892],[6.85067,53.61133],[6.84411,53.61244]]]}},{"type":"Feature","properties":{"typ":"Besonderes Schutzgebiet","name":"","seasonal":true},"geometry":{"type":"Polygon","coordinates":[[[8.49218,53.94285],[8.49343,53.95177],[8.49309,53.95956],[8.43853,53.97266],[8.36588,53.9793],[8.36127,53.95806],[8.36192,53.95761],[8.36154,53.95696],[8.35978,53.95728],[8.30971,53.95147],[8.3734,53.9163],[8.4289,53.89333],[8.434,53.89294],[8.43604,53.89377],[8.43669,53.89523],[8.44845,53.90197],[8.45489,53.90403],[8.45915,53.90478],[8.46619,53.90436],[8.47202,53.90732],[8.46848,53.91119],[8.4673,53.91554],[8.46812,53.92192],[8.47116,53.92907],[8.47494,53.9344],[8.47869,53.93768],[8.48563,53.9411],[8.49218,53.94285]]]}},{"type":"Feature","properties":{"typ":"Besonderes Schutzgebiet","name":"","seasonal":true},"geometry":{"type":"Polygon","coordinates":[[[8.55667,53.86154],[8.56837,53.87567],[8.56056,53.90472],[8.54501,53.93028],[8.54262,53.92972],[8.54167,53.92372],[8.50845,53.92369],[8.50717,53.91577],[8.50415,53.91381],[8.50525,53.91296],[8.50512,53.90107],[8.49635,53.90106],[8.4857,53.90229],[8.47972,53.90368],[8.47378,53.90625],[8.47025,53.90438],[8.4694,53.90317],[8.46593,53.90198],[8.46116,53.90099],[8.45281,53.90018],[8.44857,53.89907],[8.44571,53.89756],[8.44223,53.89438],[8.43821,53.89261],[8.53389,53.88528],[8.55667,53.86154]]]}},{"type":"Feature","properties":{"typ":"Allgemeines Schutzgebiet","name":"","seasonal":true},"geometry":{"type":"Polygon","coordinates":[[[8.53584,53.93611],[8.5041,53.95695],[8.43853,53.97266],[8.3162,53.98335],[8.21956,53.98362],[8.21124,53.9809],[8.29084,53.95],[8.4289,53.89333],[8.53389,53.88528],[8.55667,53.86154],[8.56837,53.87567],[8.56056,53.90472],[8.54501,53.93028],[8.53584,53.93611]],[[8.36127,53.95806],[8.36192,53.95761],[8.36158,53.95698],[8.3598,53.95724],[8.36011,53.95796],[8.36127,53.95806]],[[8.50453,53.91352],[8.50525,53.91296],[8.50512,53.90107],[8.49635,53.90106],[8.4857,53.90229],[8.47666,53.90481],[8.47278,53.9068],[8.47061,53.90847],[8.4687,53.91083],[8.4677,53.91311],[8.46728,53.91662],[8.46764,53.91969],[8.46914,53.92506],[8.47175,53.93005],[8.47494,53.9344],[8.47869,53.93768],[8.48563,53.9411],[8.49112,53.94268],[8.49787,53.94327],[8.50554,53.94254],[8.50546,53.92366],[8.50845,53.92369],[8.50717,53.91577],[8.50415,53.91381],[8.50453,53.91352]]]}}]}